<?xml version="1.0" encoding="utf-8" ?>
<kml xmlns="http://www.opengis.net/kml/2.2">
<Document id="root_doc">
<Schema name="senderos" id="senderos">
	<SimpleField name="fid_1" type="string"></SimpleField>
	<SimpleField name="codigoequi" type="string"></SimpleField>
	<SimpleField name="nombre" type="string"></SimpleField>
	<SimpleField name="shape_leng" type="string"></SimpleField>
	<SimpleField name="t_dificult" type="string"></SimpleField>
	<SimpleField name="modalidad" type="string"></SimpleField>
	<SimpleField name="ofertado" type="string"></SimpleField>
</Schema>
<Folder><name>senderos</name>
  <Placemark>
	<Style><LineStyle><color>ff0000ff</color></LineStyle><PolyStyle><fill>0</fill></PolyStyle></Style>
	<ExtendedData><SchemaData schemaUrl="#senderos">
		<SimpleData name="fid_1">422</SimpleData>
		<SimpleData name="codigoequi">724</SimpleData>
		<SimpleData name="nombre">LAS VIÑAS</SimpleData>
		<SimpleData name="shape_leng">8719.688440057627300</SimpleData>
		<SimpleData name="t_dificult">Media</SimpleData>
		<SimpleData name="modalidad">Sendero señalizado</SimpleData>
		<SimpleData name="ofertado">S</SimpleData>
	</SchemaData></ExtendedData>
      <LineString><coordinates>-3.40866635259474,37.7875876188151 -3.4087309676205,37.7875123303112 -3.40924668510279,37.7875303348771 -3.4093342398188,37.7874878076448 -3.40865442063332,37.7872262609736 -3.40832435626923,37.7870717000853 -3.40819755913589,37.7869929695593 -3.40822050216094,37.7869321917826 -3.40822683219536,37.7868741115186 -3.40835919058836,37.7867548980403 -3.40869237298768,37.7862694841129 -3.40871628273504,37.7857811820452 -3.40863842112373,37.7855307444342 -3.40863117382221,37.7854225700473 -3.40859099533148,37.7853725673054 -3.40859726683619,37.785303930983 -3.40851693074356,37.7852078848735 -3.40850574724147,37.7849888846316 -3.40848560731161,37.7849546467153 -3.40856815574246,37.7848488000286 -3.40854448613404,37.7847776284642 -3.40856719576727,37.7846746282986 -3.40862950105124,37.784516071516 -3.40870923228014,37.7845025996916 -3.40876536759305,37.7844311522203 -3.40881861373788,37.7844388846581 -3.40884832210282,37.7843991966209 -3.40893794252838,37.7843698568851 -3.409093162961,37.7841766704956 -3.40913298825223,37.7841007801556 -3.40908222635478,37.7840025324896 -3.40905651994872,37.7839243231205 -3.40903028958359,37.7838445194749 -3.40921628491015,37.7835903803351 -3.40933547984177,37.783497601101 -3.40931113933567,37.7833050362586 -3.40928697729718,37.7830614092502 -3.40935629484762,37.7829158550511 -3.40951551532876,37.7828256403246 -3.40966026175677,37.7827883729927 -3.4099087394764,37.7826238917587 -3.41000815649119,37.7825628484305 -3.41007811718528,37.7824974721542 -3.41003732588209,37.7823366342823 -3.40989631440902,37.7820916943133 -3.40984188518718,37.781959088908 -3.40988801322457,37.7818823975692 -3.4099014625352,37.7816718213066 -3.40999500334572,37.7814592419069 -3.41029441411317,37.7811973042166 -3.41050929144464,37.781098611085 -3.4107815646802,37.7810290484801 -3.41092102611317,37.7809942562482 -3.41103007788029,37.7808724819038 -3.41101893271122,37.7806613987977 -3.41108181519247,37.7806083991619 -3.41114436138653,37.7804947032172 -3.41120331813269,37.7803335176075 -3.41124264761465,37.7802304588601 -3.41126513170665,37.7800878730114 -3.41122738524541,37.7798768827411 -3.41118013308434,37.7797503737087 -3.4112132071321,37.7797185904833 -3.4112094436098,37.7796394327467 -3.41131222437894,37.7795862937376 -3.41147815070282,37.7795276569298 -3.41162056694606,37.7794268779732 -3.41173299988985,37.779315646478 -3.41183550279293,37.77921236766 -3.41192660335441,37.7791662397301 -3.41204120972195,37.7791324785409 -3.41218752599585,37.7790520956054 -3.41232713927357,37.779037453747 -3.41253158877791,37.7788910725304 -3.41258144525088,37.7788030212631 -3.41279044270706,37.7789721408771 -3.41307808347842,37.7793863232029 -3.41318800235896,37.7793765028182 -3.4131697402427,37.7792557902443 -3.41316591193678,37.7790864063563 -3.41335390515835,37.7791796039781 -3.41346987170914,37.7792867883421 -3.41373907139524,37.779459822123 -3.41381772233839,37.7795991862191 -3.41393376680757,37.7797201050258 -3.41417317869763,37.7796207478983 -3.41414884827515,37.7795217542412 -3.41420852867227,37.7795640073549 -3.41415370443961,37.7798590788313 -3.41431487525713,37.7799788228512 -3.414472191143,37.7799405260117 -3.41454591872576,37.7800412250663 -3.41456987865998,37.7798694126803 -3.41460501762968,37.7797749282747 -3.41471792069722,37.7797674547112 -3.41485824786578,37.7798801941994 -3.41497186547797,37.7800001056333 -3.4150825105185,37.7801200265245 -3.41513578657179,37.7800797365046 -3.41513914096634,37.7801481356095 -3.41533477791813,37.7800530872252 -3.41533431594014,37.7799705227336 -3.41531888042082,37.7798411442938 -3.41546601156045,37.7798474936537 -3.41556740664454,37.7799272578455 -3.41567322365148,37.7801158820268 -3.41569757720921,37.7802047865127 -3.4157002596304,37.7802577926064 -3.41576442486528,37.7802140177254 -3.41587043698425,37.7801691524628 -3.41599743613304,37.7800248042763 -3.41615407560196,37.7798661978779 -3.41627288366232,37.7798516248218 -3.41628242307107,37.7799624640267 -3.41637529004178,37.7800918833031 -3.41670618608352,37.7802652834929 -3.41657934415391,37.7803632113126 -3.41642696970884,37.780450737894 -3.41628083865363,37.7806229408482 -3.416200543798,37.7807056337713 -3.41611160731133,37.7807906474047 -3.41608335712913,37.7808960481083 -3.41608888606069,37.7809610144887 -3.41603352508652,37.7811593682569 -3.41598992127725,37.7813340903005 -3.41590733380443,37.781447614369 -3.41585638074184,37.7815675748072 -3.41588278939581,37.781647602422 -3.41605819703385,37.7818481176014 -3.41602620385753,37.7819732586262 -3.41585368169544,37.7821146957866 -3.41583988907203,37.7822269134235 -3.41581450847031,37.7823300163682 -3.41574292758398,37.7824241240396 -3.41570886890978,37.7825226779839 -3.41576675973194,37.7825591014639 -3.41587070983848,37.7825793369366 -3.41610131144482,37.7825533436115 -3.41617643219352,37.7825759699651 -3.41627246312714,37.7826291167175 -3.41647710606034,37.7827008144164 -3.41688487329795,37.7828916648681 -3.41719451071429,37.7830714155581 -3.41722095996079,37.7831583098405 -3.41732960005605,37.7834990114935 -3.41737846056802,37.783698191767 -3.41736058295228,37.7838789042935 -3.41744644590451,37.7842723378112 -3.41749518766679,37.7847322874793 -3.41753987126243,37.7849839381894 -3.4176158450701,37.7851576465485 -3.41844698659018,37.7860200521016 -3.41879728149311,37.7863245630289 -3.4190109194872,37.7865867815623 -3.4195053114238,37.7871050586307 -3.41986750295878,37.7876070285322 -3.4200130223946,37.7877381868143 -3.42017323513309,37.7878250618382 -3.42038831819467,37.7877917908245 -3.42058469697385,37.7878322963768 -3.4208219663252,37.787961932759 -3.42170036492593,37.7882243407017 -3.42186512165148,37.7882832702327 -3.42197996591464,37.7882956675831 -3.42225204784379,37.7882260882169 -3.4225476878833,37.7880945474686 -3.42263016225049,37.7880693518963 -3.42276181300091,37.7880851961229 -3.42299262993228,37.7883470500394 -3.42298214626126,37.7884054614276 -3.42306625298862,37.7884504091392 -3.4232291937261,37.7884784019903 -3.42342610220314,37.788484562543 -3.42362716884937,37.7884615222934 -3.42387744463315,37.7883421594655 -3.42409761925767,37.7882555248968 -3.4243308015536,37.7881739931925 -3.42452085425429,37.7881166527359 -3.4247153330556,37.7880764651927 -3.42486012226749,37.7880484737662 -3.42508941977629,37.7880442145024 -3.42529292482212,37.7880692343201 -3.42557223654966,37.7881094321655 -3.42576478765615,37.7881104544293 -3.4259439734386,37.7880445668113 -3.42610147464844,37.7879701723065 -3.42628897616671,37.7878458803399 -3.42665664907857,37.7875849388671 -3.42687520837606,37.7874608985284 -3.42697661957471,37.7874141772733 -3.42708267377092,37.7874223770367 -3.42700935711246,37.7874638473473 -3.42681975239866,37.7875984492263 -3.42654066885667,37.7879737368896 -3.42631108330406,37.7883042062019 -3.42606392371443,37.7885883830119 -3.42595830157168,37.7886557218879 -3.4258090651457,37.7886884500268 -3.42553251762775,37.7887276505287 -3.42525361128407,37.7887465044718 -3.42501556470511,37.7887466820132 -3.42491300067203,37.7887695289672 -3.42470264894469,37.7888834413296 -3.42449358544994,37.7890215436059 -3.42418077664984,37.7891771864272 -3.42403192393754,37.7892515472351 -3.4238919397005,37.7893636474042 -3.42375855463925,37.7894946080469 -3.42373096029887,37.7895874193699 -3.42380236362214,37.7895888786604 -3.42389522358289,37.7895593590906 -3.4240073383745,37.7894919978004 -3.42411712147277,37.7893954583778 -3.42420122008813,37.7893470839258 -3.42429787985257,37.789325326012 -3.42440648822875,37.7893017070249 -3.42459892454565,37.7892821293157 -3.42479404772638,37.7892625190723 -3.42492769697655,37.7892490870278 -3.42511382597502,37.7892819914291 -3.42532186815598,37.7893430501608 -3.42563806217287,37.7894002838537 -3.42607985227808,37.7894776657518 -3.4262767438767,37.7894803884803 -3.42655740355088,37.789378078318 -3.42690740048167,37.7892001896861 -3.42703509353677,37.7891147427506 -3.42715548220076,37.7890801635961 -3.42723450317698,37.7890856923757 -3.42732078092183,37.7891343110407 -3.42747070182267,37.7892457935826 -3.42759362406839,37.7893231194001 -3.42765955826471,37.7893558484338 -3.42768246777392,37.7893892437591 -3.42763670975611,37.7894213227445 -3.42757088112871,37.7894540306615 -3.42745908773517,37.789482764666 -3.4273945865841,37.789552530684 -3.42734520120533,37.7897110917695 -3.4272714451577,37.7898645892899 -3.42718945144631,37.7899962272697 -3.42714128575859,37.7900852500171 -3.42710779838159,37.7901870957341 -3.42709046424317,37.7905580031923 -3.42704463360716,37.7907706319953 -3.42697070358258,37.7909470792376 -3.42689067499727,37.7910853759997 -3.42670659516873,37.7912418478751 -3.42653681450042,37.7913454749269 -3.42642041018223,37.7914192913264 -3.42629692018259,37.7916721183293 -3.42624241800675,37.7917882039884 -3.42619579906094,37.7918643436348 -3.4258453887219,37.7918784850736 -3.42557420783067,37.7919013506667 -3.42542873942754,37.7919430832765 -3.42529404069444,37.7919397056385 -3.42465803926517,37.791953585225 -3.42403069456017,37.7920179570822 -3.42385356042282,37.792015709344 -3.42368303133209,37.7919892805229 -3.42352563838984,37.7919898455099 -3.42344764883141,37.791972098618 -3.42333520971234,37.7918888037907 -3.42307481293619,37.7917532474758 -3.422671574779,37.7916091872415 -3.42246538595837,37.7915893226742 -3.42189246467925,37.7915669075863 -3.42157809639032,37.7916414270211 -3.42111142963361,37.7917374312365 -3.42086642827813,37.7917598562311 -3.42067187555935,37.7917888775949 -3.42037237747377,37.7918578760418 -3.41992759230195,37.7918790892273 -3.41958955864076,37.792073440136 -3.41938449128269,37.7922518655866 -3.41930889903423,37.792370598183 -3.41926361245995,37.7924886802964 -3.41908616233875,37.7925812773866 -3.41887555567356,37.7926412572063 -3.41838770788872,37.7927350302911 -3.41809086953117,37.7927625052001 -3.41783631147272,37.7927981729044 -3.41768557319738,37.7928283219272 -3.41755408179001,37.7928184868754 -3.41738634647868,37.792766911258 -3.41725963024804,37.7926856125563 -3.41711986596125,37.7926474761582 -3.41692676599295,37.7926468716643 -3.41652131742506,37.7926856454516 -3.41586350990086,37.7928630867124 -3.41556071955227,37.792978753789 -3.41525323330046,37.7931253418567 -3.4150265466493,37.7932199729888 -3.41477070774496,37.7933098851788 -3.41451496423321,37.7934240977542 -3.41439730885948,37.7934379160086 -3.41430240368401,37.7934261324891 -3.41427617489317,37.7933785802643 -3.41423137736859,37.7932023295384 -3.4140992820272,37.793084328544 -3.41394020380657,37.793074585515 -3.41381707169584,37.7931084965384 -3.41327266614854,37.7932546224669 -3.41307799286038,37.7932630294444 -3.41258523169436,37.7931971249348 -3.41251420253225,37.7928746007052 -3.41253943733154,37.7927440306418 -3.41255192788962,37.7925165299056 -3.41266394969205,37.7921261318488 -3.41255831002573,37.7919885391609 -3.41235910327754,37.7919594768861 -3.41210438784565,37.7918680516989 -3.41187567481935,37.7916046396532 -3.41171210981515,37.7912932991541 -3.41159619148525,37.7911975580607 -3.41116020944585,37.7912422723047 -3.4109643950846,37.7911926277869 -3.41083406544324,37.7910949127512 -3.4108301112402,37.7906420863079 -3.41068426568639,37.7902332195826 -3.41056406819726,37.790082605801 -3.40995032104779,37.7893928130405 -3.40985475779829,37.7893134628135 -3.40990809144065,37.7894013476188 -3.41052653924867,37.7900886969754 -3.41066845844649,37.7902416614294 -3.41080006192936,37.7906421910836 -3.41078972906262,37.7909027769239 -3.41080516914252,37.7910858570362 -3.41096977262283,37.7912093852286 -3.41117620275626,37.7912673794373 -3.41159630577387,37.7912181608489 -3.41169769967746,37.7912956388515 -3.41185455836694,37.7916089072947 -3.41209388838792,37.7918806698946 -3.41231297271816,37.7919642161155 -3.41251800001829,37.7920024154602 -3.41264563947073,37.7921301626714 -3.4125311143427,37.7925753154089 -3.41251934745689,37.7927624130208 -3.41249408603496,37.7928884062906 -3.41254769248166,37.7931903883601 -3.41245221752972,37.7931403607073 -3.41238518079341,37.7930169798912 -3.41224195854123,37.7926809738991 -3.41217510174021,37.7925896395139 -3.41206533072974,37.7925625531761 -3.41189843934435,37.7926386787514 -3.4117783120012,37.7927267651603 -3.41166042527046,37.7928132104328 -3.41136593219733,37.7928379021826 -3.4111551051502,37.7928060915835 -3.41074490712927,37.792889972939 -3.41017629143374,37.7929819367931 -3.40994758512475,37.7930208945174 -3.40973993804613,37.7930307733115 -3.40945755427722,37.7930889822862 -3.40918694713663,37.7931906444898 -3.40884696919014,37.7932673649533 -3.40874868740447,37.7932310791887 -3.40871616049854,37.7930869742603 -3.40865295465267,37.7926110471667 -3.40856071285829,37.7923165312491 -3.40844840209229,37.7921356073931 -3.40848508342293,37.7919866846393 -3.40863894881401,37.7916404882018 -3.40871566211608,37.7913886890783 -3.40852044306092,37.7910568570271 -3.40839714366584,37.7908472696615 -3.40856281895325,37.7907815850766 -3.40855132384874,37.7906138719327 -3.40832373616339,37.7905517526105 -3.40812167097875,37.790325985252 -3.40839642762884,37.7903166473487 -3.40821587132818,37.790157906794 -3.40777149922887,37.7900755663613 -3.40755843235437,37.7899737878403 -3.40738544334203,37.7900265732321 -3.40717975712609,37.7901027722078 -3.40690654534882,37.7903930882556 -3.40679690185134,37.7906367078464 -3.40680257843959,37.7907079832779 -3.40662306017906,37.7906837104128 -3.40666250266644,37.7905118879195 -3.40679907875592,37.790168042803 -3.40702813651556,37.789855926171 -3.40722311693802,37.7896423605525 -3.40762654345074,37.7890412060019 -3.40781853467843,37.7888093367666 -3.40795069437216,37.7887127348954 -3.40824399587247,37.7885446112756 -3.40843034279946,37.7883356531321 -3.40858827047639,37.788204622849 -3.40879634589214,37.7880883432763 -3.40889608049484,37.7879663771165 -3.40886012834093,37.7878099449546 -3.40855967318587,37.787726285935 -3.4084585519394,37.7877294585583 -3.40862826903887,37.7876115907308</coordinates></LineString>
  </Placemark>
</Folder>
</Document></kml>
